{
  "norad_id": 67400,
  "name": "CONNECTA IOT-13",
  "history": [
    {
      "epoch": "2026-03-28T22:55:00.174432",
      "apogee_km": 519.2919830921082,
      "perigee_km": 509.3874940188034,
      "latitude_deg": 35.49289168382601,
      "longitude_deg": -68.33313951990567,
      "semi_major_axis_km": 6892.476738555455,
      "eccentricity": 0.0007185,
      "inclination_deg": 97.4571,
      "raan_deg": 88.1788,
      "arg_perigee_deg": 265.5068,
      "mean_anomaly_deg": 94.5345,
      "mean_motion_rev_day": 15.17189395
    }
  ]
}