{"fetched_at":"2026-03-29T16:36:15Z","count":15609,"tles":[{"name":"CONNECTA IOT-13","line1":"1 67400U 26004AP  26087.95486313  .00003675  00000+0  18826-3 0  9999","line2":"2 67400  97.4571  88.1788 0007185 265.5068  94.5345 15.17189395 11589","category":"Other"}]}